[{"OBJECT_NAME":"STARLINK-1446","OBJECT_ID":"2020-035G","EPOCH":"2026-03-09T22:34:36.621696","MEAN_MOTION":15.42911141,"ECCENTRICITY":3.749e-5,"INCLINATION":53.0259,"RA_OF_ASC_NODE":358.185,"ARG_OF_PERICENTER":267.9178,"MEAN_ANOMALY":92.1784,"EPHEMERIS_TYPE":0,"CLASSIFICATION_TYPE":"U","NORAD_CAT_ID":45663,"ELEMENT_SET_NO":999,"REV_AT_EPOCH":31971,"BSTAR":0.00054126708,"MEAN_MOTION_DOT":0.00023817,"MEAN_MOTION_DDOT":0},{"OBJECT_NAME":"SCOT-1 (SCOT)","OBJECT_ID":"2025-009J","EPOCH":"2026-03-09T23:07:08.932512","MEAN_MOTION":15.43340321,"ECCENTRICITY":0.00036129,"INCLINATION":97.3896,"RA_OF_ASC_NODE":154.5498,"ARG_OF_PERICENTER":296.5488,"MEAN_ANOMALY":63.5389,"EPHEMERIS_TYPE":0,"CLASSIFICATION_TYPE":"U","NORAD_CAT_ID":62617,"ELEMENT_SET_NO":999,"REV_AT_EPOCH":6399,"BSTAR":0.0012718549,"MEAN_MOTION_DOT":0.00056959,"MEAN_MOTION_DDOT":0}]
